#aP2004 12 25  0  0  0.00000000      96 ORBIT IGb00 HLM  IGS
## 1302 518400.00000000   900.00000000 53364 0.0000000000000
+   30     1  2  3  4  5  6  7  8  9 10 11 13 14 15 16 17 18
+         19 20 21 22 23 24 25 26 27 28 29 30 31  0  0  0  0
+          0  0  0  0  0  0  0  0  0  0  0  0  0  0  0  0  0
+          0  0  0  0  0  0  0  0  0  0  0  0  0  0  0  0  0
+          0  0  0  0  0  0  0  0  0  0  0  0  0  0  0  0  0
++         3  4  3  4  3  3  3  3  3  3  3  4  4  4  4  3  4
++         4  3  3  4  3  3  3  3  3  4  4  3  3  0  0  0  0
++         0  0  0  0  0  0  0  0  0  0  0  0  0  0  0  0  0
++         0  0  0  0  0  0  0  0  0  0  0  0  0  0  0  0  0
++         0  0  0  0  0  0  0  0  0  0  0  0  0  0  0  0  0
%c cc cc ccc ccc cccc cccc cccc cccc ccccc ccccc ccccc ccccc
%c cc cc ccc ccc cccc cccc cccc cccc ccccc ccccc ccccc ccccc
%f  0.0000000  0.000000000  0.00000000000  0.000000000000000
%f  0.0000000  0.000000000  0.00000000000  0.000000000000000
%i    0    0    0    0      0      0      0      0         0
%i    0    0    0    0      0      0      0      0         0
/* FINAL ORBIT COMBINATION FROM WEIGHTED AVERAGE OF:        
/* cod emr esa gfz jpl mit ngs sio                          
/* REFERENCED TO IGS TIME AND TO WEIGHTED MEAN POLE:        
/* CLK ANT Z-OFFSET (M): II/IIA 1.023; IIR 0.000            
*  2004 12 25  5  0  0.00000000
P  1 -19057.669204 -11029.794699 -14681.732761    379.654847
P  2  17131.758608  -2832.970597 -20380.350578    -56.622724
P  3 -20106.118231  -4478.901434  16784.849256     71.438870
P  4  11195.403482  11214.718418 -21268.196625    486.740928
P  5  17748.337906 -13663.967127 -14299.148579     67.719859
P  6  -2804.648590 -21830.585645 -14594.262674   -372.118314
P  7  16528.906643  20888.517899    -92.245593    128.883478
P  8   2209.243736  20526.110032  16319.781297    -16.654398
P  9  14638.773474 -20249.168611   7998.025074    -21.005555
P 10  26668.745103  -1430.278178   -847.171002     56.008719
P 11 -13727.208115  21069.085253   8242.267026    178.533824
P 13   2806.666518  21744.160428 -15092.139299    -15.813284
P 14 -15768.148425 -21363.048347   -963.072232    -31.309335
P 15  -8630.526359 -13930.268414  20634.981911    366.124471
P 16 -25416.542524  -2780.407499  -7193.596669      2.479702
P 17  18622.727428 -11124.376140 -14546.238426   -128.371964
P 18  -1232.144251 -15163.030647  21833.366574   -110.507777
P 19 -14497.217262   5456.778988  21671.041396    -10.007326
P 20 -18042.962272  12363.534755 -15132.024188    -96.992497
P 21   3068.529237 -23569.532124  11367.118422     85.680973
P 22 -13494.523164 -12872.797261  19068.827319     15.844877
P 23  -6633.890427  15462.149360 -20619.892108    208.921052
P 24  13071.136515   7221.624039 -21662.771063     83.129749
P 25 -13114.046531  -8403.335958 -21130.378232     82.361340
P 26  15131.495285  -3039.200308  21400.837361    303.227983
P 27  -1511.657826  24308.696219  10544.738738    498.456931
P 28  13385.712085  12649.488760  19465.613449     46.026241
P 29  17061.388143    -73.561787  20653.939250    219.279998
P 30   7745.924879 -15726.573460 -20175.606411    474.214023
P 31  13544.588880  22192.589325   4225.178679     -2.103325
*  2004 12 25  5 15  0.00000000
P  1 -19841.732085 -12403.448332 -12401.524734    379.655738
P  2  16296.814040   -663.875829 -21252.393210    -56.614872
P  3 -21161.360156  -5996.950453  14949.356593     71.440627
P  4  10137.283670  13368.385108 -20511.358943    486.722897
P  5  19269.134991 -13702.578617 -12084.007503     67.721857
P  6  -1486.054202 -20551.875859 -16505.396434   -372.030576
P  7  16222.857808  21008.586673   2700.356996    128.857670
P  8   1276.492164  22068.309466  14271.269712    -16.655803
P  9  14497.407755 -19088.533844  10578.393765    -21.005818
P 10  26437.940282  -1223.403462  -3705.789052     56.009398
P 11 -13785.318070  19904.702590  10689.693857    178.536825
P 13   1629.080557  20345.195803 -17085.677316    -15.812822
P 14 -15581.269268 -21441.947888   1930.030666    -31.309276
P 15  -7460.092464 -15968.830036  19572.158476    366.128530
P 16 -24470.672862  -3131.586742  -9819.100037      2.479423
P 17  17897.440881  -9412.610108 -16564.709880   -128.360405
P 18   1239.925563 -15335.257380  21689.661541   -110.511633
P 19 -15813.886957   3413.333666  21157.005688    -10.008115
P 20 -19650.042086  12382.576237 -12945.891104    -96.990199
P 21   3828.370238 -24506.504921   8841.713982     85.682032
P 22 -11286.169790 -13134.110909  20298.378704     15.845247
P 23  -8131.657392  13603.887749 -21392.125850    208.922778
P 24  11947.379171   9486.729201 -21428.575410     83.131234
P 25 -12292.747724 -10734.389454 -20568.851201     82.361583
P 26  16550.959454  -1043.602453  20588.882805    303.233945
P 27  -2109.593229  25164.157523   7953.727043    498.463259
P 28  11166.957401  12983.802822  20594.837548     46.026596
P 29  18380.757119   1727.531840  19407.427733    219.263973
P 30   9939.941612 -15942.081614 -18985.331362    474.202826
P 31  12839.541176  21888.026767   6948.112098     -2.105748
*  2004 12 25  5 30  0.00000000
P  1 -20529.798214 -13518.122768  -9905.997345    379.657937
P  2  15550.851705   1617.427539 -21768.046771    -56.606887
P  3 -22130.148974  -7304.859818  12857.564191     71.442944
P  4   9227.063629  15477.002863 -19399.143420    486.705246
P  5  20535.069497 -13747.008308  -9660.753462     67.724685
P  6     25.950045 -19187.091023 -18127.335587   -371.942469
P  7  15712.533455  20915.523855   5447.139476    128.831760
P  8    517.173117  23425.560238  11970.154150    -16.657490
P  9  14329.187509 -17647.058494  12969.090138    -21.006741
P 10  25905.108647   -950.904487  -6501.791907     56.009779
P 11 -13832.431853  18486.246874  12951.202363    178.540044
P 13    240.671959  18854.129648 -18787.093388    -15.812097
P 14 -15188.066941 -21282.353712   4789.979330    -31.309183
P 15  -6453.311977 -17937.078677  18164.010397    366.133848
P 16 -23260.848272  -3583.902340 -12275.455581      2.479313
P 17  17165.529519  -7475.435312 -18284.217088   -128.348838
P 18   3665.196093 -15632.094800  21174.100834   -110.514771
P 19 -17188.235971   1503.118481  20281.919700    -10.008715
P 20 -20999.410859  12436.562493 -10537.721400    -96.987944
P 21   4429.487316 -25205.035009   6160.178435     85.682606
P 22  -8977.460659 -13525.601772  21183.387224     15.845609
P 23  -9767.494540  11777.399612 -21798.888137    208.924156
P 24  10961.627101  11763.052685 -20814.839912     83.132115
P 25 -11608.507261 -13019.178066 -19641.017124     82.361020
P 26  18003.336974    777.038976  19417.682290    303.240094
P 27  -2584.433852  25760.566364   5224.560164    498.469451
P 28   8861.483150  13453.198503  21378.495546     46.026793
P 29  19694.397546   3333.980986  17835.309660    219.247862
P 30  11974.943807 -16234.027322 -17473.798796    474.191743
P 31  11909.851221  21397.045204   9547.997691     -2.107947
*  2004 12 25  5 45  0.00000000
P  1 -21079.659623 -14375.124072  -7238.834249    379.660300
P  2  14915.535931   3969.361983 -21919.124968    -56.598971
P  3 -22973.156605  -8400.059307  10545.868867     71.445363
P  4   8467.142677  17492.776568 -17949.958905    486.687192
P  5  21530.508933 -13761.598522  -7070.735093     67.727779
P  6   1719.864129 -17778.784523 -19431.492052   -371.854886
P  7  14979.650713  20640.190029   8101.878637    128.806024
P  8    -85.461764  24557.937037   9457.152539    -16.658469
P  9  14171.335943 -15942.298075  15126.504833    -21.006886
P 10  25087.966525   -577.686197  -9187.947965     56.010789
P 11 -13900.218163  16833.174439  14987.616977    178.543166
P 13  -1349.829923  17317.216585 -20167.302451    -15.811020
P 14 -14564.472852 -20915.265863   7567.687081    -31.309194
P 15  -5611.123789 -19786.849386  16435.086948    366.137401
P 16 -21817.426906  -4164.145026 -14520.162698      2.478836
P 17  16465.865106  -5341.661553 -19674.851629   -128.337424
P 18   5996.849460 -16039.917455  20294.743538   -110.518728
P 19 -18583.048536   -244.326569  19060.492867    -10.009453
P 20 -22071.187747  12489.445063  -7948.674616    -96.984994
P 21   4897.001608 -25636.033456   3369.734853     85.683071
P 22  -6615.284056 -14052.592334  21709.114141     15.845750
P 23 -11513.829924  10022.617742 -21833.616992    208.925810
P 24  10125.277192  14001.068902 -19832.318757     83.133558
P 25 -11061.569714 -15209.065759 -18363.849027     82.362636
P 26  19446.727533   2397.260755  17909.704801    303.245968
P 27  -2965.352788  26072.605618   2404.005154    498.475997
P 28   6515.729510  14059.747900  21802.792993     46.026937
P 29  20958.932206   4729.264278  15963.701619    219.232409
P 30  13816.483495 -16574.898538 -15665.884326    474.180592
P 31  10745.217682  20755.326386  11978.310283     -2.110147
EOF
